STARLINK-31510          
1 59575U 24076M   26068.17949132  .00002728  00000+0  10858-3 0  9991
2 59575  43.0034   8.5180 0000642 282.3748  77.7032 15.27587823106466
FLOCK 4G-24             
1 62637U 25009AE  26068.72509072  .00010513  00000+0  38996-3 0  9991
2 62637  97.4061 151.5140 0001802 280.2808  79.8228 15.27784978 63732
